DELTA 2 R/B(1)          
1 20453U 90008B   26139.51353416  .00042585  00000+0  37052-3 0  9993
2 20453  35.6024  66.8459 0071150 205.9877 153.7280 15.64601709937202
COSMOS 2058             
1 20465U 90010A   26139.47823678  .00001919  00000+0  11048-3 0  9999
2 20465  82.4682 337.6698 0010921  90.1851 270.0631 15.11829377952939
SL-14 R/B               
1 20466U 90010B   26139.43695934  .00000223  00000+0  23996-4 0  9991
2 20466  82.5037 200.9430 0021260  68.7066 291.6416 14.83626942938977
SL-14 R/B               
1 20511U 90018B   26139.45519130  .00000195  00000+0  21474-4 0  9992
2 20511  82.5203 156.9644 0015311 214.4964 145.5258 14.82196282933061
HST                     
1 20580U 90037B   26139.45398294  .00004661  00000+0  14636-3 0  9998
2 20580  28.4749 276.9024 0001681 168.8210 191.2423 15.30421158784161
SL-16 R/B               
1 20625U 90046B   26139.38881578 -.00000246  00000+0 -10222-3 0  9996
2 20625  70.9973 149.4310 0015090 206.2154 153.8206 14.15022427858395
COSMOS 2084             
1 20663U 90055A   26139.31163487  .00000964  00000+0  79666-4 0  9996
2 20663  62.7882  94.6360 0006749 231.8842 128.1651 15.05980235946959
SL-6 R/B(2)             
1 20666U 90055D   26139.39227834  .00000960  00000+0  83197-4 0  9994
2 20666  62.7833  13.3545 0036075   0.9606 359.1556 15.03890261948824
SL-8 R/B                
1 20775U 90078B   26139.41981698  .00012552  00000+0  35681-3 0  9992
2 20775  82.9026 187.6119 0354810 135.2192 227.8264 14.91325504819831
SL-8 R/B                
1 21088U 91006B   26139.39257686 -.00000033  00000+0 -48396-4 0  9993
2 21088  82.9399 117.4554 0021978 193.5526 329.2375 13.77504667773808
OKEAN-3                 
1 21397U 91039A   26139.42109936  .00001807  00000+0  12448-3 0  9996
2 21397  82.5150 268.2724 0015852  89.6778 270.6265 15.05169545875674
COSMOS 2151             
1 21422U 91042A   26139.51599241  .00000867  00000+0  66863-4 0  9997
2 21422  82.4979  15.3493 0012318 172.6852 187.4554 15.00352495873818
SL-14 R/B               
1 21423U 91042B   26139.38822073  .00000210  00000+0  23581-4 0  9997
2 21423  82.4918 153.9036 0017327  14.2684 345.9016 14.81882007863541
ERS-1                   
1 21574U 91050A   26139.45807044  .00000135  00000+0  58006-4 0  9998
2 21574  98.7814 159.4527 0031709 354.6218   5.4624 14.39497417825915
ARIANE 40 R/B           
1 21610U 91050F   26139.41031612  .00000154  00000+0  58555-4 0  9995
2 21610  98.1896 188.9452 0002579 193.7491 166.3629 14.42937813829191
INTERCOSMOS 25          
1 21819U 91086A   26139.39074816  .00000648  00000+0  12707-3 0  9991
2 21819  82.6030 267.2358 1485234 324.5327  26.5218 12.12159430505257
SL-8 R/B                
1 21876U 92008B   26139.46537169  .00000057  00000+0  43506-4 0  9998
2 21876  82.9287 215.1404 0033272 297.9488  73.3926 13.75972894719151
SL-8 R/B                
1 21938U 92020B   26139.40515097 -.00000007  00000+0 -23542-4 0  9996
2 21938  82.9284 101.2348 0030463  99.7306  12.7813 13.75546739710850
USA 81                  
1 21949U 92023A   26139.35427134  .00000119  00000+0  36719-4 0  9991
2 21949  85.0062  90.6466 0002286 108.1107 252.0335 14.32388984104909
COSMOS 2219             
1 22219U 92076A   26139.54186034 -.00000206  00000+0 -83656-4 0  9993
2 22219  71.0613 229.9535 0015587  91.6042 268.6866 14.14102047728394
SL-16 R/B               
1 22220U 92076B   26139.45909567 -.00000168  00000+0 -60057-4 0  9996
2 22220  71.0012  39.2986 0013483 337.7200 194.8765 14.16867912731858
COSMOS 2221             
1 22236U 92080A   26139.45409086  .00000827  00000+0  70548-4 0  9995
2 22236  82.5052 211.2891 0012976 319.2760  40.7491 14.96453131791375
SL-16 R/B               
1 22285U 92093B   26139.47997042 -.00000080  00000+0 -16449-4 0  9992
2 22285  71.0213 215.6555 0005501 221.2352 138.8356 14.15457845723170
COSMOS 2228             
1 22286U 92094A   26139.48947326  .00001060  00000+0  88416-4 0  9995
2 22286  82.5178 169.5293 0019384  66.5156 293.8101 14.97477106786654
SL-16 R/B               
1 22566U 93016B   26139.52765821 -.00000003  00000+0  23133-4 0  9996
2 22566  71.0085  66.4006 0011749 224.7959 135.2216 14.15312140712198
COSMOS 2242             
1 22626U 93024A   26139.23547020  .00000947  00000+0  80165-4 0  9993
2 22626  82.5199 199.2380 0017713  70.8524 289.4614 14.96812041790940
SL-16 R/B               
1 22803U 93059B   26139.48132806  .00000222  00000+0  13366-3 0  9991
2 22803  70.9904 221.8383 0014997 104.3351 255.9439 14.17242153689561
ARIANE 40 R/B           
1 22830U 93061H   26139.43605287  .00000114  00000+0  57458-4 0  9998
2 22830  98.4830 206.8887 0011927  77.2094 283.0423 14.32894072704235
COSMOS 2278             
1 23087U 94023A   26139.39188726 -.00000201  00000+0 -80158-4 0  9993
2 23087  71.0544  27.1742 0010993 277.9245  82.0630 14.14384826654807
SL-16 R/B               
1 23088U 94023B   26139.40654146 -.00000170  00000+0 -62952-4 0  9997
2 23088  71.0003 282.3726 0004328 222.5796 137.4992 14.15022795656091
SL-16 R/B               
1 23343U 94074B   26139.55719477  .00000219  00000+0  35969-4 0  9992
2 23343  97.7010 167.4691 0006498   4.2436 154.4954 14.79474948697721
SL-16 R/B               
1 23405U 94077B   26139.43124683  .00000283  00000+0  16932-3 0  9999
2 23405  70.9824 203.6598 0001298   3.2593 356.8538 14.15571319626246
ARIANE 40+ R/B          
1 23561U 95021B   26139.20662700  .00000152  00000+0  62193-4 0  9990
2 23561  98.4419 209.6987 0005505 294.5480  84.7174 14.39815448629399
SL-16 R/B               
1 23705U 95058B   26139.44165476  .00000210  00000+0  13148-3 0  9994
2 23705  71.0231  31.7114 0012333   1.8640 358.2526 14.15507426577860
SL-16 R/B               
1 24298U 96051B   26139.42013257  .00000122  00000+0  92481-4 0  9993
2 24298  70.7634  25.5331 0013282  23.2659 336.9059 14.12435437531633
ORBVIEW 2 (SEASTAR)     
1 24883U 97037A   26139.44312966  .00000116  00000+0  56397-4 0  9998
2 24883  98.8665 305.6696 0001946 181.3736 178.7443 14.35536858518627
SL-16 R/B               
1 25400U 98043G   26139.38575911  .00000008  00000+0  22322-4 0  9997
2 25400  98.8351  93.3004 0010056 163.4730 196.6779 14.26063256449065
SL-16 R/B               
1 25407U 98045B   26139.41783556 -.00000244  00000+0 -99220-4 0  9991
2 25407  71.0126  32.8331 0009757 275.7548  84.2463 14.16200783437118
ISS (ZARYA)             
1 25544U 98067A   26139.48801487  .00005163  00000+0  10086-3 0  9993
2 25544  51.6327  82.1724 0007543  75.4903 284.6922 15.49271759567301
CZ-4B R/B               
1 25732U 99025C   26139.34477131  .00000013  00000+0  26806-4 0  9994
2 25732  98.6506 181.9062 0037895 140.3603 230.4860 14.18277901398183
OKEAN-O                 
1 25860U 99039A   26139.41977610  .00000343  00000+0  51700-4 0  9993
2 25860  97.9333 198.5456 0001987  96.5102 263.6336 14.80428193444857
SL-16 R/B               
1 25861U 99039B   26139.40088622  .00000279  00000+0  42129-4 0  9992
2 25861  97.9856 198.3437 0015471  32.8950 327.3222 14.81812688447337
DELTA 2 R/B             
1 25876U 99041E   26139.36828134  .00000088  00000+0  52867-4 0  9994
2 25876  51.7647  18.9175 0501738 196.8742 161.4958 14.11960310373016
HELIOS 1B               
1 25977U 99064A   26139.46421263  .00000830  00000+0  97037-4 0  9997
2 25977  98.1636  43.7713 0001611 126.9863 233.1500 14.87920253695784
TERRA                   
1 25994U 99068A   26139.45945931  .00000219  00000+0  53633-4 0  9997
2 25994  97.9475 190.1419 0001610 359.5862  58.0614 14.61077397405416
SL-16 R/B               
1 26070U 00006B   26139.45163228 -.00000052  00000+0 -22836-5 0  9997
2 26070  71.0017 309.0469 0014504  71.8089 288.4611 14.15830673358577
TITAN 4B R/B            
1 26474U 00047B   26139.51339557  .00001486  00000+0  97646-4 0  9997
2 26474  67.9872 201.2724 0044461 316.4643  43.2999 15.10026334403602
ENVISAT                 
1 27386U 02009A   26139.40365119  .00000039  00000+0  26515-4 0  9991
2 27386  98.3821  91.3670 0001227  91.9812  18.0866 14.39057147269341
IDEFIX & ARIANE 42P R/B 
1 27422U 02021B   26139.53332904  .00000130  00000+0  65955-4 0  9999
2 27422  98.5937  77.3287 0011551 345.2020  14.8823 14.31066703254157
AQUA                    
1 27424U 02022A   26139.52652234  .00000462  00000+0  10176-3 0  9994
2 27424  98.4263 108.2410 0002030  71.0318  38.3980 14.62108417279085
CZ-4B R/B               
1 27432U 02024C   26139.37156339  .00000010  00000+0  28022-4 0  9992
2 27432  98.8720 192.3756 0050184 180.9846 190.1794 14.14559218239231
MIDORI II (ADEOS-II)    
1 27597U 02056A   26139.43723670  .00000150  00000+0  76614-4 0  9999
2 27597  98.7865  98.4562 0001845 115.7636 244.3736 14.29331501220402
H-2A R/B                
1 27601U 02056E   26139.40980360  .00000137  00000+0  62879-4 0  9996
2 27601  98.3300  97.1360 0069231 311.7371 158.5755 14.33807063224246
CZ-4B R/B               
1 28059U 03049C   26139.48786189  .00000199  00000+0  57359-4 0  9993
2 28059  98.6899 137.1936 0048467  17.1266 343.1552 14.55077287196899
CZ-2C R/B               
1 28222U 04012C   26139.46481478  .00056810  00000+0  40370-3 0  9992
2 28222  97.7099 211.9122 0010382  53.7229 306.4992 15.73661216215378
SL-16 R/B               
1 28353U 04021B   26139.24012412  .00000329  00000+0  19614-3 0  9992
2 28353  71.0001  84.4363 0006988 285.0009  75.0340 14.14606915132816
CZ-4B R/B               
1 28415U 04035C   26139.49402422  .00005585  00000+0  19098-3 0  9992
2 28415  97.3385 172.8985 0033033  78.3604 282.1341 15.30142249190739
CZ-2C R/B               
1 28480U 04046B   26139.51388083  .00000078  00000+0  44705-4 0  9991
2 28480  98.1962  50.0831 0138321 305.7933  53.0456 14.27018360118605
ARIANE 5 R/B            
1 28499U 04049H   26139.43426216  .00000503  00000+0  61702-4 0  9995
2 28499  98.2705 310.5811 0085125 121.3936 239.5640 14.85397363156291
